NORAD_CAT_ID,OBJECT_NAME,OBJECT_TYPE,EPOCH,MEAN_MOTION,ECCENTRICITY,INCLINATION,RA_OF_ASC_NODE,ARG_OF_PERICENTER,MEAN_ANOMALY,BSTAR,MEAN_MOTION_DOT,MEAN_MOTION_DDOT,TLE_LINE0,TLE_LINE1,TLE_LINE2,SEMIMAJOR_AXIS,PERIOD,APOGEE,PERIGEE,DECAYED
55753.0,STARLINK-5617,PAYLOAD,2023-04-16 20:00:01,15.34076724,0.0003243,70.0027,33.011,264.0566,330.3383,-0.031732,-0.00958619,0.0,0 STARLINK-5617,1 55753U 23028N   23106.83334491 -.00958619  00000-0 -31732-1 0  9994,2 55753  70.0027  33.0110 0003243 264.0566 330.3383 15.34076724  7540,6841.801,93.868,465.885,461.447,0.0
55753.0,STARLINK-5617,PAYLOAD,2023-04-16 22:00:00,15.33901231,0.0003364,70.0028,32.789,265.7813,68.6754,-0.031668,-0.00951998,0.0,0 STARLINK-5617,1 55753U 23028N   23106.91667824 -.00951998  00000-0 -31668-1 0  9993,2 55753  70.0028  32.7890 0003364 265.7813  68.6754 15.33901231  1309,6842.323,93.878,466.49,461.886,0.0
55753.0,STARLINK-5617,PAYLOAD,2023-04-17 12:00:00,15.32725175,0.0003177,70.0026,31.2368,266.1681,47.2942,-0.030763,-0.00895758,0.0,0 STARLINK-5617,1 55753U 23028N   23107.50001157 -.00895758  00000-0 -30763-1 0  9996,2 55753  70.0026  31.2368 0003177 266.1681  47.2942 15.32725175  7646,6845.823,93.95,469.863,465.513,0.0
55753.0,STARLINK-5617,PAYLOAD,2023-04-17 14:00:01,15.32541388,0.0003252,70.0027,31.0153,266.7633,146.3641,-0.029266,-0.00850912,0.0,0 STARLINK-5617,1 55753U 23028N   23107.58334491 -.00850912  00000-0 -29266-1 0  9993,2 55753  70.0027  31.0153 0003252 266.7633 146.3641 15.32541388  1300,6846.37,93.962,470.461,466.009,0.0
55753.0,STARLINK-5617,PAYLOAD,2023-04-17 22:00:00,15.31941225,0.0003247,70.0031,30.1297,269.0096,182.2618,-0.033585,-0.00949211,0.0,0 STARLINK-5617,1 55753U 23028N   23107.91667824 -.00949211  00000-0 -33585-1 0  9999,2 55753  70.0031  30.1297 0003247 269.0096 182.2618 15.31941225  1303,6848.158,93.998,472.247,467.799,0.0
55753.0,STARLINK-5617,PAYLOAD,2023-04-18 06:00:00,15.31269994,0.0003121,70.0029,29.2451,275.8322,212.8134,-0.032497,-0.00903308,0.0,0 STARLINK-5617,1 55753U 23028N   23108.25001157 -.00903308  00000-0 -32497-1 0  9996,2 55753  70.0029  29.2451 0003121 275.8322 212.8134 15.31269994  7764,6850.159,94.04,474.162,469.886,0.0
55753.0,STARLINK-5617,PAYLOAD,2023-04-18 14:00:01,15.30584371,0.0003096,70.0029,28.3615,269.1205,256.1263,-0.031045,-0.00849105,0.0,0 STARLINK-5617,1 55753U 23028N   23108.58334491 -.00849105  00000-0 -31045-1 0  9994,2 55753  70.0029  28.3615 0003096 269.1205 256.1263 15.30584371  1309,6852.205,94.082,476.191,471.948,0.0
55753.0,STARLINK-5617,PAYLOAD,2023-04-18 22:00:00,15.29982439,0.0003144,70.0032,27.4788,269.1912,291.8541,-0.035556,-0.00957709,0.0,0 STARLINK-5617,1 55753U 23028N   23108.91667824 -.00957709  00000-0 -35556-1 0  9991,2 55753  70.0032  27.4788 0003144 269.1912 291.8541 15.29982439  7860,6854.002,94.119,478.022,473.712,0.0
55753.0,STARLINK-5617,PAYLOAD,2023-04-19 14:00:01,15.28628465,0.0003165,70.0031,25.7159,267.1146,3.2105,-0.032994,-0.00849427,0.0,0 STARLINK-5617,1 55753U 23028N   23109.58334491 -.00849427  00000-0 -32994-1 0  9996,2 55753  70.0031  25.7159 0003165 267.1146   3.2105 15.28628465  7969,6858.048,94.202,482.084,477.743,0.0
55753.0,STARLINK-5617,PAYLOAD,2023-04-19 22:00:00,15.28022456,0.0003318,70.0032,24.8359,269.0729,34.7058,-0.037524,-0.00951983,0.0,0 STARLINK-5617,1 55753U 23028N   23109.91667824 -.00951983  00000-0 -37524-1 0  9997,2 55753  70.0032  24.8359 0003318 269.0729  34.7058 15.28022456  8011,6859.862,94.239,484.003,479.45,0.0
55753.0,STARLINK-5617,PAYLOAD,2023-04-20 14:00:01,15.2666812,0.0003323,70.003,23.0785,268.8865,99.4794,-0.034799,-0.00844255,0.0,0 STARLINK-5617,1 55753U 23028N   23110.58334491 -.00844255  00000-0 -34799-1 0  9997,2 55753  70.0030  23.0785 0003323 268.8865  99.4794 15.26668120  1309,6863.918,94.323,488.064,483.502,0.0
55753.0,STARLINK-5617,PAYLOAD,2023-04-20 22:00:00,15.26063557,0.0003394,70.0031,22.2011,271.2621,128.2106,-0.03971,-0.00949348,0.0,0 STARLINK-5617,1 55753U 23028N   23110.91667824 -.00949348  00000-0 -39710-1 0  9990,2 55753  70.0031  22.2011 0003394 271.2621 128.2106 15.26063557  1300,6865.731,94.36,489.926,485.265,0.0
55753.0,STARLINK-5617,PAYLOAD,2023-04-21 14:00:01,15.24711999,0.0003269,70.0029,20.4489,270.2889,189.0748,-0.036915,-0.00844206,0.0,0 STARLINK-5617,1 55753U 23028N   23111.58334491 -.00844206  00000-0 -36915-1 0  9996,2 55753  70.0029  20.4489 0003269 270.2889 189.0748 15.24711999  1307,6869.787,94.444,493.898,489.407,0.0
55753.0,STARLINK-5617,PAYLOAD,2023-04-21 22:00:00,15.24103272,0.0003274,70.0029,19.5741,272.0617,216.0633,-0.041983,-0.00946411,0.0,0 STARLINK-5617,1 55753U 23028N   23111.91667824 -.00946411  00000-0 -41983-1 0  9994,2 55753  70.0029  19.5741 0003274 272.0617 216.0633 15.24103272  1305,6871.616,94.482,495.731,491.232,0.0
55753.0,STARLINK-5617,PAYLOAD,2023-04-22 14:00:01,15.22758515,0.0003189,70.0026,17.8269,268.4025,274.9168,-0.039323,-0.00847998,0.0,0 STARLINK-5617,1 55753U 23028N   23112.58334491 -.00847998  00000-0 -39323-1 0  9994,2 55753  70.0026  17.8269 0003189 268.4025 274.9168 15.22758515  8425,6875.661,94.565,499.719,495.334,0.0
55753.0,STARLINK-5617,PAYLOAD,2023-04-22 22:00:01,15.22140595,0.0003289,70.0028,16.9546,270.2605,299.5413,-0.043991,-0.00936249,0.0,0 STARLINK-5617,1 55753U 23028N   23112.91668981 -.00936249  00000-0 -43991-1 0  9999,2 55753  70.0028  16.9546 0003289 270.2605 299.5413 15.22140595  8475,6877.522,94.604,501.649,497.125,0.0
55753.0,STARLINK-5617,PAYLOAD,2023-04-23 14:00:01,15.2080673,0.0003334,70.0025,15.2125,266.5165,353.7178,-0.042057,-0.00855574,0.0,0 STARLINK-5617,1 55753U 23028N   23113.58334491 -.00855574  00000-0 -42057-1 0  9992,2 55753  70.0025  15.2125 0003334 266.5165 353.7178 15.20806730  1301,6881.543,94.687,505.702,501.114,0.0
55753.0,STARLINK-5617,PAYLOAD,2023-04-23 22:00:00,15.20181497,0.0003404,70.0027,14.3428,269.3888,14.9202,-0.04638,-0.00932189,0.0,0 STARLINK-5617,1 55753U 23028N   23113.91667824 -.00932189  00000-0 -46380-1 0  9999,2 55753  70.0027  14.3428 0003404 269.3888  14.9202 15.20181497  1300,6883.43,94.726,507.638,502.952,0.0
55753.0,STARLINK-5617,PAYLOAD,2023-04-24 04:00:00,15.19671251,0.0003263,70.0024,13.691,273.5937,298.2596,-0.044416,-0.00883103,0.0,0 STARLINK-5617,1 55753U 23028N   23114.16667824 -.00883103  00000-0 -44416-1 0  9996,2 55753  70.0024  13.6910 0003263 273.5937 298.2596 15.19671251  8669,6884.97,94.757,509.082,504.589,0.0
55753.0,STARLINK-5617,PAYLOAD,2023-04-24 14:00:01,15.18851933,0.0003452,70.0023,12.6058,266.545,63.5649,-0.044705,-0.00868989,0.0,0 STARLINK-5617,1 55753U 23028N   23114.58334491 -.00868989  00000-0 -44705-1 0  9999,2 55753  70.0023  12.6058 0003452 266.5450  63.5649 15.18851933  8738,6887.446,94.808,511.689,506.934,0.0
55753.0,STARLINK-5617,PAYLOAD,2023-04-25 06:00:00,15.1759173,0.000349,70.0021,10.8723,273.7159,99.054,-0.051291,-0.00954491,0.0,0 STARLINK-5617,1 55753U 23028N   23115.25001157 -.00954491  00000-0 -51291-1 0  9996,2 55753  70.0021  10.8723 0003490 273.7159  99.0540 15.17591730  8833,6891.258,94.887,515.529,510.718,0.0
55753.0,STARLINK-5617,PAYLOAD,2023-04-25 14:00:01,15.16899566,0.0003452,70.0022,10.0069,267.4772,125.5305,-0.047715,-0.00876188,0.0,0 STARLINK-5617,1 55753U 23028N   23115.58335648 -.00876188  00000-0 -47715-1 0  9999,2 55753  70.0022  10.0069 0003452 267.4772 125.5305 15.16899566  1304,6893.355,94.93,517.599,512.84,0.0
55753.0,STARLINK-5617,PAYLOAD,2023-04-25 20:00:01,15.16450706,0.0003447,70.0025,9.3585,267.2635,50.2828,-0.053201,-0.0095784,0.0,0 STARLINK-5617,1 55753U 23028N   23115.83334491 -.00957840  00000-0 -53201-1 0  9994,2 55753  70.0025   9.3585 0003447 267.2635  50.2828 15.16450706  8929,6894.715,94.959,518.956,514.203,0.0
55753.0,STARLINK-5617,PAYLOAD,2023-04-26 14:00:01,15.14947506,0.0003344,70.0023,7.4158,268.8726,179.8655,-0.050909,-0.00883628,0.0,0 STARLINK-5617,1 55753U 23028N   23116.58334491 -.00883628  00000-0 -50909-1 0  9991,2 55753  70.0023   7.4158 0003344 268.8726 179.8655 15.14947506  9032,6899.275,95.053,523.447,518.833,0.0
55753.0,STARLINK-5617,PAYLOAD,2023-04-26 22:00:00,15.14306003,0.0003316,70.0025,6.5539,273.4907,192.2871,-0.054455,-0.00924917,0.0,0 STARLINK-5617,1 55753U 23028N   23116.91667824 -.00924917  00000-0 -54455-1 0  9994,2 55753  70.0025   6.5539 0003316 273.4907 192.2871 15.14306003  1301,6901.223,95.093,525.377,520.8,0.0
55753.0,STARLINK-5617,PAYLOAD,2023-04-27 04:00:00,15.13818966,0.000344,70.0023,5.9079,275.4537,112.5789,-0.05453,-0.00914377,0.0,0 STARLINK-5617,1 55753U 23028N   23117.16667824 -.00914377  00000-0 -54530-1 0  9995,2 55753  70.0023   5.9079 0003440 275.4537 112.5789 15.13818966  9126,6902.703,95.124,526.943,522.194,0.0
55753.0,STARLINK-5617,PAYLOAD,2023-04-27 14:00:01,15.13001872,0.0003209,70.0023,4.8328,267.5873,229.9634,-0.054777,-0.00898783,0.0,0 STARLINK-5617,1 55753U 23028N   23117.58335648 -.00898783  00000-0 -54777-1 0  9992,2 55753  70.0023   4.8328 0003209 267.5873 229.9634 15.13001872  1303,6905.188,95.175,529.269,524.838,0.0
55753.0,STARLINK-5617,PAYLOAD,2023-04-27 22:00:00,15.12345168,0.0003246,70.0026,3.9733,270.3815,241.8058,-0.057078,-0.00917968,0.0,0 STARLINK-5617,1 55753U 23028N   23117.91667824 -.00917968  00000-0 -57078-1 0  9997,2 55753  70.0026   3.9733 0003246 270.3815 241.8058 15.12345168  9236,6907.187,95.216,531.294,526.81,0.0
55753.0,STARLINK-5617,PAYLOAD,2023-04-28 14:00:01,15.11046401,0.0003233,70.0025,2.2573,265.6375,273.5646,-0.058176,-0.00903464,0.0,0 STARLINK-5617,1 55753U 23028N   23118.58334491 -.00903464  00000-0 -58176-1 0  9998,2 55753  70.0025   2.2573 0003233 265.6375 273.5646 15.11046401  1305,6911.145,95.298,535.244,530.775,0.0
55753.0,STARLINK-5617,PAYLOAD,2023-04-28 22:00:00,15.10383787,0.0003213,70.0028,1.4005,269.1882,282.3664,-0.059729,-0.00910167,0.0,0 STARLINK-5617,1 55753U 23028N   23118.91667824 -.00910167  00000-0 -59729-1 0  9997,2 55753  70.0028   1.4005 0003213 269.1882 282.3664 15.10383787  9383,6913.166,95.34,537.252,532.809,0.0
